NORAD_CAT_ID,OBJECT_NAME,OBJECT_TYPE,EPOCH,MEAN_MOTION,ECCENTRICITY,INCLINATION,RA_OF_ASC_NODE,ARG_OF_PERICENTER,MEAN_ANOMALY,BSTAR,MEAN_MOTION_DOT,MEAN_MOTION_DDOT,TLE_LINE0,TLE_LINE1,TLE_LINE2,SEMIMAJOR_AXIS,PERIOD,APOGEE,PERIGEE,DECAYED
53893.0,STARLINK-5052,PAYLOAD,2023-01-02 08:45:12,15.08835543,0.0002002,53.2193,141.9467,55.9608,304.1574,-2.537800000000001e-05,-6.92e-06,0.0,0 STARLINK-5052,1 53893U 22119H   23002.36472729 -.00000692  00000-0 -25378-4 0  9998,2 53893  53.2193 141.9467 0002002  55.9608 304.1574 15.08835543 15790,6917.894,95.438,541.144,538.374,0.0
53893.0,STARLINK-5052,PAYLOAD,2023-01-02 11:55:58,15.08840953,0.0001831999999999,53.2191,141.3537,59.9717,300.1456,-5.4655e-05,-1.158e-05,0.0,0 STARLINK-5052,1 53893U 22119H   23002.49720422 -.00001158  00000-0 -54655-4 0  9996,2 53893  53.2191 141.3537 0001832  59.9717 300.1456 15.08840953 16231,6917.877,95.437,541.01,538.475,0.0
53893.0,STARLINK-5052,PAYLOAD,2023-01-02 18:17:30,15.08845465,0.0001855,53.219,140.1637,59.4284,300.6891,-2.8683000000000013e-05,-7.45e-06,0.0,0 STARLINK-5052,1 53893U 22119H   23002.76216066 -.00000745  00000-0 -28683-4 0  9993,2 53893  53.2190 140.1637 0001855  59.4284 300.6891 15.08845465 15855,6917.864000000001,95.437,541.012,538.445,0.0
53893.0,STARLINK-5052,PAYLOAD,2023-01-03 08:35:59,15.08825533,0.0001725,53.2186,137.4868,60.3683,299.7481,0.00017424,2.485e-05,0.0,0 STARLINK-5052,1 53893U 22119H   23003.35832832  .00002485  00000-0  17424-3 0  9995,2 53893  53.2186 137.4868 0001725  60.3683 299.7481 15.08825533 15942,6917.925,95.438,540.9830000000002,538.596,0.0
53893.0,STARLINK-5052,PAYLOAD,2023-01-04 08:26:46,15.08839393,0.0001785,53.2176,133.0274,47.8231,312.2912,0.00011026,1.467e-05,0.0,0 STARLINK-5052,1 53893U 22119H   23004.35192547  .00001467  00000-0  11026-3 0  9999,2 53893  53.2176 133.0274 0001785  47.8231 312.2912 15.08839393 16095,6917.882,95.438,540.982,538.512,0.0
53893.0,STARLINK-5052,PAYLOAD,2023-01-04 14:48:18,15.08850414,0.0001705,53.2172,131.8379,43.3139,316.7987,9.9923e-05,1.303e-05,0.0,0 STARLINK-5052,1 53893U 22119H   23004.61687798  .00001303  00000-0  99923-4 0  9997,2 53893  53.2172 131.8379 0001705  43.3139 316.7987 15.08850414 16552,6917.849,95.437,540.893,538.534,0.0
53893.0,STARLINK-5052,PAYLOAD,2023-01-05 08:17:33,15.08833436,0.0001528,53.2223,128.5657,75.2979,284.8183,9.2755e-05,1.188e-05,0.0,0 STARLINK-5052,1 53893U 22119H   23005.34552586  .00001188  00000-0  92755-4 0  9991,2 53893  53.2223 128.5657 0001528  75.2979 284.8183 15.08833436 16244,6917.9,95.438,540.823,538.7080000000002,0.0
53893.0,STARLINK-5052,PAYLOAD,2023-01-05 14:39:05,15.08840364,0.0001764999999999,53.2169,127.3761,73.4164,286.7022,3.8745e-05,3.29e-06,0.0,0 STARLINK-5052,1 53893U 22119H   23005.61048375  .00000329  00000-0  38745-4 0  9992,2 53893  53.2169 127.3761 0001765  73.4164 286.7022 15.08840364 16707,6917.879,95.438,540.965,538.523,0.0
53893.0,STARLINK-5052,PAYLOAD,2023-01-06 08:08:20,15.0883686,0.0001508,53.2194,124.1064,77.507,282.6091,-7.447e-05,-1.473e-05,0.0,0 STARLINK-5052,1 53893U 22119H   23006.33912934 -.00001473  00000-0 -74470-4 0  9991,2 53893  53.2194 124.1064 0001508  77.5070 282.6091 15.08836860 16811,6917.89,95.438,540.798,538.712,0.0
53893.0,STARLINK-5052,PAYLOAD,2023-01-07 06:23:45,15.08829597,0.0001359,53.2198,119.9434,77.4046,282.7098,1.4601e-05,-5.6e-07,0.0,0 STARLINK-5052,1 53893U 22119H   23007.26649396 -.00000056  00000-0  14601-4 0  9998,2 53893  53.2198 119.9434 0001359  77.4046 282.7098 15.08829597 16530,6917.911999999998,95.438,540.717,538.837,0.0
53893.0,STARLINK-5052,PAYLOAD,2023-01-07 17:31:27,15.0882688,0.0001481,53.2181,117.8615,82.4937,277.6224,-1.7454e-05,-5.66e-06,0.0,0 STARLINK-5052,1 53893U 22119H   23007.73017860 -.00000566  00000-0 -17454-4 0  9991,2 53893  53.2181 117.8615 0001481  82.4937 277.6224 15.08826880 17022,6917.92,95.438,540.81,538.761,0.0
53893.0,STARLINK-5052,PAYLOAD,2023-01-08 07:49:55,15.08830874,0.0001234,53.2176,115.1844,84.0666,276.0467,4.1261e-05,3.69e-06,0.0,0 STARLINK-5052,1 53893U 22119H   23008.32633689  .00000369  00000-0  41261-4 0  9992,2 53893  53.2176 115.1844 0001234  84.0666 276.0467 15.08830874 16696,6917.908,95.438,540.627,538.92,0.0
53893.0,STARLINK-5052,PAYLOAD,2023-01-08 14:11:27,15.088441,0.0001495,53.2207,113.9976,96.8448,263.2714,6.9299e-05,8.15e-06,0.0,0 STARLINK-5052,1 53893U 22119H   23008.59128729  .00000815  00000-0  69299-4 0  9992,2 53893  53.2207 113.9976 0001495  96.8448 263.2714 15.08844100 17153,6917.868,95.437,540.7669999999998,538.6990000000002,0.0
53893.0,STARLINK-5052,PAYLOAD,2023-01-08 23:43:46,15.08836426,0.0001573,53.2197,112.2147,122.7059,237.4085,0.00013369,1.84e-05,0.0,0 STARLINK-5052,1 53893U 22119H   23008.98873067  .00001840  00000-0  13369-3 0  9992,2 53893  53.2197 112.2147 0001573 122.7059 237.4085 15.08836426 16792,6917.891,95.438,540.844,538.668,0.0
53893.0,STARLINK-5052,PAYLOAD,2023-01-09 09:16:05,15.08838344,0.0001077,53.2188,110.4277,88.8584,271.2531,5.742e-05,6.26e-06,0.0,0 STARLINK-5052,1 53893U 22119H   23009.38617401  .00000626  00000-0  57420-4 0  9993,2 53893  53.2188 110.4277 0001077  88.8584 271.2531 15.08838344 17277,6917.885,95.438,540.496,539.005,0.0
53893.0,STARLINK-5052,PAYLOAD,2023-01-10 12:17:43,15.08774631,0.0001471,53.2182,105.3743,81.9241,278.1918,-0.00059258,-9.689e-05,0.0,0 STARLINK-5052,1 53893U 22119H   23010.51231306 -.00009689  00000-0 -59258-3 0  9996,2 53893  53.2182 105.3743 0001471  81.9241 278.1918 15.08774631 17020,6918.08,95.442,540.9630000000002,538.928,0.0
53893.0,STARLINK-5052,PAYLOAD,2023-01-10 18:39:10,15.08853014,0.0001169,53.2183,104.1845,85.05799999999998,275.0546,7.0578e-05,8.36e-06,0.0,0 STARLINK-5052,1 53893U 22119H   23010.77720383  .00000836  00000-0  70578-4 0  9994,2 53893  53.2183 104.1845 0001169  85.0580 275.0546 15.08853014 17066,6917.840999999999,95.437,540.514,538.8969999999998,0.0
53893.0,STARLINK-5052,PAYLOAD,2023-01-10 21:49:57,15.08854163,5.600000000000001e-05,53.2193,103.59,106.1189,253.9865,-0.00050362,-8.297e-05,0.0,0 STARLINK-5052,1 53893U 22119H   23010.90969709 -.00008297  00000-0 -50362-3 0  9995,2 53893  53.2193 103.5900 0000560 106.1189 253.9865 15.08854163 17500,6917.837,95.437,540.089,539.315,0.0
53893.0,STARLINK-5052,PAYLOAD,2023-01-11 12:08:23,15.08939893,6.3e-05,53.2185,100.915,84.7656,275.3408,-0.00098407,-0.00015957,0.0,0 STARLINK-5052,1 53893U 22119H   23011.50582590 -.00015957  00000-0 -98407-3 0  9994,2 53893  53.2185 100.9150 0000630  84.7656 275.3408 15.08939893 17591,6917.575,95.431,539.876,539.004,0.0
53893.0,STARLINK-5052,PAYLOAD,2023-01-11 23:16:07,15.08837108,0.0001085,53.2186,98.8335,84.9509,275.1607,0.00013964,1.935e-05,0.0,0 STARLINK-5052,1 53893U 22119H   23011.96952875  .00001935  00000-0  13964-3 0  9995,2 53893  53.2186  98.8335 0001085  84.9509 275.1607 15.08837108 17243,6917.889,95.438,540.505,539.004,0.0
53893.0,STARLINK-5052,PAYLOAD,2023-01-12 08:48:26,15.08828726,0.0001005,53.2187,97.0491,89.9758,270.1349,4.5269e-05,4.33e-06,0.0,0 STARLINK-5052,1 53893U 22119H   23012.36697805  .00000433  00000-0  45269-4 0  9995,2 53893  53.2187  97.0491 0001005  89.9758 270.1349 15.08828726 17302,6917.915,95.438,540.475,539.085,0.0
53893.0,STARLINK-5052,PAYLOAD,2023-01-13 11:49:59,15.08844981,0.0001072999999999,53.2182,91.9928,102.9678,257.1434,3.5285e-05,2.74e-06,0.0,0 STARLINK-5052,1 53893U 22119H   23013.49305018  .00000274  00000-0  35285-4 0  9992,2 53893  53.2182  91.9928 0001073 102.9678 257.1434 15.08844981 17476,6917.865,95.437,540.472,538.988,0.0
53893.0,STARLINK-5052,PAYLOAD,2023-01-15 03:34:39,15.08834491,0.0001018,53.2202,84.5625,92.238,267.8729,-5.1404e-05,-1.106e-05,0.0,0 STARLINK-5052,1 53893U 22119H   23015.14906355 -.00001106  00000-0 -51404-4 0  9995,2 53893  53.2202  84.5625 0001018  92.2380 267.8729 15.08834491 17729,6917.897,95.438,540.466,539.058,0.0
53893.0,STARLINK-5052,PAYLOAD,2023-01-15 05:10:02,15.08827318,0.0001062,53.2208,84.2616,105.8884,254.2225,-8.7729e-05,-1.683e-05,0.0,0 STARLINK-5052,1 53893U 22119H   23015.21530917 -.00001683  00000-0 -87729-4 0  9999,2 53893  53.2208  84.2616 0001062 105.8884 254.2225 15.08827318 17733,6917.919,95.438,540.519,539.049,0.0
53893.0,STARLINK-5052,PAYLOAD,2023-01-15 14:42:20,15.08843177,0.0001026,53.2199,82.4765,111.9562,248.154,4.362e-05,4.07e-06,0.0,0 STARLINK-5052,1 53893U 22119H   23015.61273463  .00000407  00000-0  43620-4 0  9996,2 53893  53.2199  82.4765 0001026 111.9562 248.1540 15.08843177 17797,6917.871,95.437,540.445,539.026,0.0
53893.0,STARLINK-5052,PAYLOAD,2023-01-15 21:03:52,15.0884578,3.3600000000000004e-05,53.2191,81.2869,81.7325,278.3705,0.00010775,1.428e-05,0.0,0 STARLINK-5052,1 53893U 22119H   23015.87769041  .00001428  00000-0  10775-3 0  9994,2 53893  53.2191  81.2869 0000336  81.7325 278.3705 15.08845780 18257,6917.863,95.437,539.96,539.495,0.0
53893.0,STARLINK-5052,PAYLOAD,2023-01-16 11:22:19,15.08862467,0.0001158,53.2194,78.6107,82.3612,277.7512,0.00015761,2.223e-05,0.0,0 STARLINK-5052,1 53893U 22119H   23016.47383918  .00002223  00000-0  15761-3 0  9990,2 53893  53.2194  78.6107 0001158  82.3612 277.7512 15.08862467 17927,6917.812,95.436,540.4780000000001,538.876,0.0
53893.0,STARLINK-5052,PAYLOAD,2023-01-16 12:57:42,15.08864286,0.0001141,53.2193,78.3133,94.3303,265.782,0.00017074,2.432e-05,0.0,0 STARLINK-5052,1 53893U 22119H   23016.54007638  .00002432  00000-0  17074-3 0  9991,2 53893  53.2193  78.3133 0001141  94.3303 265.7820 15.08864286 18352,6917.806,95.436,540.46,538.882,0.0
53893.0,STARLINK-5052,PAYLOAD,2023-01-16 20:54:40,15.08833123,9.03e-05,53.2193,76.827,100.2717,259.8377,-0.00014984,-2.671e-05,0.0,0 STARLINK-5052,1 53893U 22119H   23016.87130414 -.00002671  00000-0 -14984-3 0  9990,2 53893  53.2193  76.8270 0000903 100.2717 259.8377 15.08833123 18401,6917.901,95.438,540.391,539.1419999999999,0.0
